NORAD_CAT_ID,OBJECT_NAME,OBJECT_TYPE,EPOCH,MEAN_MOTION,ECCENTRICITY,INCLINATION,RA_OF_ASC_NODE,ARG_OF_PERICENTER,MEAN_ANOMALY,BSTAR,MEAN_MOTION_DOT,MEAN_MOTION_DDOT,TLE_LINE0,TLE_LINE1,TLE_LINE2,SEMIMAJOR_AXIS,PERIOD,APOGEE,PERIGEE,DECAYED
51972.0,STARLINK-3671,PAYLOAD,2023-07-06 10:52:31,15.05581354,0.0001329,53.0529,97.775,94.5199,265.5941,1.4434e-05,-6.9e-07,0.0,0 STARLINK-3671,1 51972U 22025S   23187.45314540 -.00000069  00000-0  14434-4 0  9998,2 51972  53.0529  97.7750 0001329  94.5199 265.5941 15.05581354 74737,6927.859,95.644,550.644,548.803,0.0
51972.0,STARLINK-3671,PAYLOAD,2023-07-07 23:31:07,15.05580482,0.0001335,53.0529,90.9291,90.4255,269.6887,4.6842e-05,4.03e-06,0.0,0 STARLINK-3671,1 51972U 22025S   23188.97995143  .00000403  00000-0  46842-4 0  9999,2 51972  53.0529  90.9291 0001335  90.4255 269.6887 15.05580482 74967,6927.861,95.644,550.651,548.802,0.0
51972.0,STARLINK-3671,PAYLOAD,2023-07-09 02:36:11,15.05577837,0.0001382,53.0529,85.868,93.5037,266.611,2.7895e-05,1.27e-06,0.0,0 STARLINK-3671,1 51972U 22025S   23190.10846253  .00000127  00000-0  27895-4 0  9994,2 51972  53.0529  85.8680 0001382  93.5037 266.6110 15.05577837 75132,6927.87,95.644,550.692,548.777,0.0
51972.0,STARLINK-3671,PAYLOAD,2023-07-10 02:30:02,15.05583919,0.0001321,53.0528,81.4028,86.7661,273.3479,1.9251e-05,1e-08,0.0,0 STARLINK-3671,1 51972U 22025S   23191.10420036  .00000001  00000-0  19251-4 0  9990,2 51972  53.0528  81.4028 0001321  86.7661 273.3479 15.05583919 75286,6927.851,95.644,550.631,548.801,0.0
51972.0,STARLINK-3671,PAYLOAD,2023-07-11 02:23:55,15.05580912,0.0001302,53.0526,76.9399,84.516,275.5977,2.936e-06,-2.36e-06,0.0,0 STARLINK-3671,1 51972U 22025S   23192.09994540 -.00000236  00000-0  29360-5 0  9999,2 51972  53.0526  76.9399 0001302  84.5160 275.5977 15.05580912 75437,6927.86,95.644,550.627,548.823,0.0
51972.0,STARLINK-3671,PAYLOAD,2023-07-12 08:40:09,15.05581088,0.0001304,53.0532,71.2842,87.4764,272.6374,6.8061e-06,-1.8e-06,0.0,0 STARLINK-3671,1 51972U 22025S   23193.36121963 -.00000180  00000-0  68061-5 0  9990,2 51972  53.0532  71.2842 0001304  87.4764 272.6374 15.05581088 75624,6927.86,95.644,550.628,548.821,0.0
51972.0,STARLINK-3671,PAYLOAD,2023-07-13 22:54:20,15.05581599,0.0001322,53.0534,64.1409,88.5036,271.6104,5.3913e-05,5.06e-06,0.0,0 STARLINK-3671,1 51972U 22025S   23194.95440869  .00000506  00000-0  53913-4 0  9995,2 51972  53.0534  64.1409 0001322  88.5036 271.6104 15.05581599 75863,6927.858,95.644,550.639,548.807,0.0
51972.0,STARLINK-3671,PAYLOAD,2023-07-15 00:23:48,15.05585751,0.0001383,53.0535,59.3787,89.3432,270.7715,8.0088e-05,8.88e-06,0.0,0 STARLINK-3671,1 51972U 22025S   23196.01653021  .00000888  00000-0  80088-4 0  9996,2 51972  53.0535  59.3787 0001383  89.3432 270.7715 15.05585751 76026,6927.845,95.644,550.668,548.752,0.0
51972.0,STARLINK-3671,PAYLOAD,2023-07-15 21:06:29,15.05583149,0.00014,53.0537,55.5074,95.0163,265.0985,-8.9569e-06,-4.1e-06,0.0,0 STARLINK-3671,1 51972U 22025S   23196.87951072 -.00000410  00000-0 -89569-5 0  9994,2 51972  53.0537  55.5074 0001400  95.0163 265.0985 15.05583149 76159,6927.853,95.644,550.688,548.748,0.0
51972.0,STARLINK-3671,PAYLOAD,2023-07-17 00:11:32,15.0558736,0.0001199,53.053,50.4494,85.7503,274.3622,2.1032e-05,2.7e-07,0.0,0 STARLINK-3671,1 51972U 22025S   23198.00801581  .00000027  00000-0  21032-4 0  9992,2 51972  53.0530  50.4494 0001199  85.7503 274.3622 15.05587360 76320,6927.84,95.644,550.536,548.875,0.0
51972.0,STARLINK-3671,PAYLOAD,2023-07-17 17:43:02,15.05580587,0.0001214,53.0532,47.1753,90.1085,270.0043,5.4762e-05,5.19e-06,0.0,0 STARLINK-3671,1 51972U 22025S   23198.73822912  .00000519  00000-0  54762-4 0  9995,2 51972  53.0532  47.1753 0001214  90.1085 270.0043 15.05580587 76432,6927.861,95.644,550.567,548.885,0.0
51972.0,STARLINK-3671,PAYLOAD,2023-07-18 17:36:55,15.05579608,0.0001141,53.0534,42.7106,87.044,273.0679,-4.3468e-05,-9.12e-06,0.0,0 STARLINK-3671,1 51972U 22025S   23199.73397737 -.00000912  00000-0 -43468-4 0  9998,2 51972  53.0534  42.7106 0001141  87.0440 273.0679 15.05579608 76582,6927.864,95.644,550.52,548.939,0.0
51972.0,STARLINK-3671,PAYLOAD,2023-07-19 19:06:23,15.05577194,0.0001183,53.0535,37.9487,88.615,271.4974,7.1544e-05,7.63e-06,0.0,0 STARLINK-3671,1 51972U 22025S   23200.79610222  .00000763  00000-0  71544-4 0  9992,2 51972  53.0535  37.9487 0001183  88.6150 271.4974 15.05577194 76748,6927.871,95.644,550.556,548.917,0.0
51972.0,STARLINK-3671,PAYLOAD,2023-07-21 01:22:37,15.05579615,0.0001216,53.0537,32.2925,92.1318,267.9809,8.8746e-05,1.014e-05,0.0,0 STARLINK-3671,1 51972U 22025S   23202.05737412  .00001014  00000-0  88746-4 0  9996,2 51972  53.0537  32.2925 0001216  92.1318 267.9809 15.05579615 76936,6927.864,95.644,550.571,548.887,0.0
51972.0,STARLINK-3671,PAYLOAD,2023-07-24 12:13:21,15.05581355,0.0001112,53.0537,16.816,97.0053,263.1062,1.9228e-05,1e-08,0.0,0 STARLINK-3671,1 51972U 22025S   23205.50928160  .00000001  00000-0  19228-4 0  9995,2 51972  53.0537  16.8160 0001112  97.0053 263.1062 15.05581355 76359,6927.859,95.644,550.494,548.953,0.0
51972.0,STARLINK-3671,PAYLOAD,2023-07-24 20:11:17,15.05604222,0.000137,53.0547,15.327,113.3943,246.719,0.00022698,3.031e-05,0.0,0 STARLINK-3671,1 51972U 22025S   23205.84117509  .00003031  00000-0  22698-3 0  9999,2 51972  53.0547  15.3270 0001370 113.3943 246.7190 15.05604222 76406,6927.789,95.643,550.603,548.704,0.0
51972.0,STARLINK-3671,PAYLOAD,2023-07-25 23:15:49,15.05810226,0.0002084,53.0536,10.2644,92.1144,268.0083,0.0012283,0.00017773,0.0,0 STARLINK-3671,1 51972U 22025S   23206.96932227  .00017773  00000-0  12283-2 0  9991,2 51972  53.0536  10.2644 0002084  92.1144 268.0083 15.05810226 76572,6927.157,95.63,550.465,547.578,0.0
51972.0,STARLINK-3671,PAYLOAD,2023-07-26 18:22:10,15.06126906,3.37e-05,53.0536,6.6861,74.6864,285.4162,0.0034627,0.00051291,0.0,0 STARLINK-3671,1 51972U 22025S   23207.76539352  .00051291  00000-0  34627-2 0  9991,2 51972  53.0536   6.6861 0000337  74.6864 285.4162 15.06126906 77797,6926.186,95.609,548.284,547.817,0.0
51972.0,STARLINK-3671,PAYLOAD,2023-07-26 19:57:43,15.06138047,0.0001078,53.0536,6.3907,113.1756,246.9346,0.003435,0.00050891,0.0,0 STARLINK-3671,1 51972U 22025S   23207.83174792  .00050891  00000-0  34350-2 0  9990,2 51972  53.0536   6.3907 0001078 113.1756 246.9346 15.06138047 76702,6926.152,95.609,548.763,547.27,0.0
51972.0,STARLINK-3671,PAYLOAD,2023-07-26 23:08:50,15.061309,8.9e-05,53.0535,5.7959,62.5575,297.5504,0.0031926,0.00047246,0.0,0 STARLINK-3671,1 51972U 22025S   23207.96447487  .00047246  00000-0  31926-2 0  9994,2 51972  53.0535   5.7959 0000890  62.5575 297.5504 15.06130900 77820,6926.173,95.609,548.655,547.422,0.0
51972.0,STARLINK-3671,PAYLOAD,2023-07-27 03:55:29,15.06163172,5.01e-05,53.0532,4.9005,82.8109,277.2936,0.0028918,0.00042778,0.0,0 STARLINK-3671,1 51972U 22025S   23208.16353793  .00042778  00000-0  28918-2 0  9995,2 51972  53.0532   4.9005 0000501  82.8109 277.2936 15.06163172 77851,6926.074,95.607,548.286,547.593,0.0
51972.0,STARLINK-3671,PAYLOAD,2023-07-27 16:39:46,15.0638912,8.52e-05,53.0537,2.517,82.5897,277.5189,-5.8195e-05,-1.148e-05,0.0,0 STARLINK-3671,1 51972U 22025S   23208.69429200 -.00001148  00000-0 -58195-4 0  9990,2 51972  53.0537   2.5170 0000852  82.5897 277.5189 15.06389120 77938,6925.382,95.593,547.837,546.657,0.0
51972.0,STARLINK-3671,PAYLOAD,2023-07-27 21:26:21,15.0641686,0.0001021,53.0537,1.6233,105.7211,254.389,0.00023724,3.256e-05,0.0,0 STARLINK-3671,1 51972U 22025S   23208.89330673  .00003256  00000-0  23724-3 0  9996,2 51972  53.0537   1.6233 0001021 105.7211 254.3890 15.06416860 76860,6925.297,95.591,547.869,546.455,0.0
51972.0,STARLINK-3671,PAYLOAD,2023-07-28 06:00:00,15.06376477,8.96e-05,53.0525,0.0218,71.3693,64.1215,0.0027392,0.00040729,0.0,0 STARLINK-3671,1 51972U 22025S   23209.25001157  .00040729  00000-0  27392-2 0  9999,2 51972  53.0525   0.0218 0000896  71.3693  64.1215 15.06376477 78021,6925.421,95.594,547.906,546.665,0.0
51972.0,STARLINK-3671,PAYLOAD,2023-07-28 10:10:42,15.06394327,7.14e-05,53.0538,359.2396,87.2711,272.836,2.4348e-06,-2.45e-06,0.0,0 STARLINK-3671,1 51972U 22025S   23209.42410107 -.00000245  00000-0  24348-5 0  9998,2 51972  53.0538 359.2396 0000714  87.2711 272.8360 15.06394327 76949,6925.366,95.593,547.725,546.736,0.0
51972.0,STARLINK-3671,PAYLOAD,2023-07-28 22:00:00,15.06382397,0.0001043,53.0525,357.0304,62.3533,90.5008,0.0020396,0.00030215,0.0,0 STARLINK-3671,1 51972U 22025S   23209.91667824  .00030215  00000-0  20396-2 0  9997,2 51972  53.0525 357.0304 0001043  62.3533  90.5008 15.06382397 78122,6925.403,95.593,547.99,546.545,0.0
51972.0,STARLINK-3671,PAYLOAD,2023-07-29 10:03:47,15.06391103,0.000101,53.0535,354.7721,72.8009,287.3091,0.00011204,1.388e-05,0.0,0 STARLINK-3671,1 51972U 22025S   23210.41930298  .00001388  00000-0  11204-3 0  9990,2 51972  53.0535 354.7721 0001010  72.8009 287.3091 15.06391103 78198,6925.376,95.593,547.94,546.541,0.0
51972.0,STARLINK-3671,PAYLOAD,2023-07-30 14:43:30,15.06392579,0.0001051,53.0544,349.4106,76.4985,283.6121,-3.4794e-05,-7.99e-06,0.0,0 STARLINK-3671,1 51972U 22025S   23211.61355248 -.00000799  00000-0 -34794-4 0  9996,2 51972  53.0544 349.4106 0001051  76.4985 283.6121 15.06392579 78375,6925.371,95.593,547.964,546.508,0.0
51972.0,STARLINK-3671,PAYLOAD,2023-07-31 17:47:41,15.06391029,7.9e-05,53.0533,344.3467,89.6245,270.4835,2.1196e-05,3.4e-07,0.0,0 STARLINK-3671,1 51972U 22025S   23212.74144832  .00000034  00000-0  21196-4 0  9998,2 51972  53.0533 344.3467 0000790  89.6245 270.4835 15.06391029 78545,6925.376,95.593,547.788,546.694,0.0
51972.0,STARLINK-3671,PAYLOAD,2023-08-01 17:40:46,15.06396982,7.89e-05,53.0536,339.8797,95.0821,265.0258,6.7281e-06,-1.81e-06,0.0,0 STARLINK-3671,1 51972U 22025S   23213.73664972 -.00000181  00000-0  67281-5 0  9990,2 51972  53.0536 339.8797 0000789  95.0821 265.0258 15.06396982 78690,6925.358,95.592,547.769,546.676,0.0
